STARLINK-30940          
1 58409U 23180H   26068.83408657 -.00002763  00000+0 -90928-4 0  9994
2 58409  43.0025 266.6490 0002281 277.2266  82.8327 15.27570165129359
XCUBE-1                 
1 62400U 24247Z   26068.48297321  .00009773  00000+0  36224-3 0  9994
2 62400  44.9938 117.7807 0005235 331.1499  28.9094 15.27910558 67702
